[{"OBJECT_NAME":"GOES 1 (SMS-C)","OBJECT_ID":"1975-100A","EPOCH":"2025-03-09T10:55:13.308096","MEAN_MOTION":1.00276386,"ECCENTRICITY":0.0003961,"INCLINATION":5.7928,"RA_OF_ASC_NODE":283.216,"ARG_OF_PERICENTER":349.9655,"MEAN_ANOMALY":337.2743,"EPHEMERIS_TYPE":0,"CLASSIFICATION_TYPE":"U","NORAD_CAT_ID":8366,"ELEMENT_SET_NO":999,"REV_AT_EPOCH":18040,"BSTAR":0,"MEAN_MOTION_DOT":-2.47e-6,"MEAN_MOTION_DDOT":0},{"OBJECT_NAME":"GOES 2","OBJECT_ID":"1977-048A","EPOCH":"2025-03-09T20:40:19.260192","MEAN_MOTION":0.99402349,"ECCENTRICITY":0.0013217,"INCLINATION":7.5249,"RA_OF_ASC_NODE":297.2642,"ARG_OF_PERICENTER":42.5161,"MEAN_ANOMALY":305.0607,"EPHEMERIS_TYPE":0,"CLASSIFICATION_TYPE":"U","NORAD_CAT_ID":10061,"ELEMENT_SET_NO":999,"REV_AT_EPOCH":4165,"BSTAR":0,"MEAN_MOTION_DOT":-2.28e-6,"MEAN_MOTION_DDOT":0},{"OBJECT_NAME":"GOES 3","OBJECT_ID":"1978-062A","EPOCH":"2025-03-09T03:58:02.916192","MEAN_MOTION":0.99357829,"ECCENTRICITY":0.0001347,"INCLINATION":7.9543,"RA_OF_ASC_NODE":302.6719,"ARG_OF_PERICENTER":352.2249,"MEAN_ANOMALY":191.0282,"EPHEMERIS_TYPE":0,"CLASSIFICATION_TYPE":"U","NORAD_CAT_ID":10953,"ELEMENT_SET_NO":999,"REV_AT_EPOCH":12391,"BSTAR":0,"MEAN_MOTION_DOT":-1.9e-7,"MEAN_MOTION_DDOT":0},{"OBJECT_NAME":"GOES 4","OBJECT_ID":"1980-074A","EPOCH":"2025-03-09T17:28:34.312224","MEAN_MOTION":0.99229931,"ECCENTRICITY":0.003231,"INCLINATION":8.9969,"RA_OF_ASC_NODE":306.4598,"ARG_OF_PERICENTER":96.2927,"MEAN_ANOMALY":243.0308,"EPHEMERIS_TYPE":0,"CLASSIFICATION_TYPE":"U","NORAD_CAT_ID":11964,"ELEMENT_SET_NO":999,"REV_AT_EPOCH":12282,"BSTAR":0,"MEAN_MOTION_DOT":4.3e-7,"MEAN_MOTION_DDOT":0},{"OBJECT_NAME":"GOES 5","OBJECT_ID":"1981-049A","EPOCH":"2025-03-09T04:02:25.642176","MEAN_MOTION":1.00329524,"ECCENTRICITY":0.0002839,"INCLINATION":10.1937,"RA_OF_ASC_NODE":318.7571,"ARG_OF_PERICENTER":323.345,"MEAN_ANOMALY":220.0008,"EPHEMERIS_TYPE":0,"CLASSIFICATION_TYPE":"U","NORAD_CAT_ID":12472,"ELEMENT_SET_NO":999,"REV_AT_EPOCH":11818,"BSTAR":0,"MEAN_MOTION_DOT":-2.31e-6,"MEAN_MOTION_DDOT":0},{"OBJECT_NAME":"GOES 6","OBJECT_ID":"1983-041A","EPOCH":"2025-03-09T03:38:02.090112","MEAN_MOTION":1.00300772,"ECCENTRICITY":0.0001366,"INCLINATION":10.9349,"RA_OF_ASC_NODE":324.2844,"ARG_OF_PERICENTER":245.32,"MEAN_ANOMALY":292.3789,"EPHEMERIS_TYPE":0,"CLASSIFICATION_TYPE":"U","NORAD_CAT_ID":14050,"ELEMENT_SET_NO":999,"REV_AT_EPOCH":21135,"BSTAR":0,"MEAN_MOTION_DOT":-2.55e-6,"MEAN_MOTION_DDOT":0},{"OBJECT_NAME":"GOES 7","OBJECT_ID":"1987-022A","EPOCH":"2025-03-07T23:16:13.691424","MEAN_MOTION":0.99908479,"ECCENTRICITY":0.0002989,"INCLINATION":13.3518,"RA_OF_ASC_NODE":340.9315,"ARG_OF_PERICENTER":34.9239,"MEAN_ANOMALY":131.2912,"EPHEMERIS_TYPE":0,"CLASSIFICATION_TYPE":"U","NORAD_CAT_ID":17561,"ELEMENT_SET_NO":999,"REV_AT_EPOCH":12230,"BSTAR":0,"MEAN_MOTION_DOT":-1.55e-6,"MEAN_MOTION_DDOT":0},{"OBJECT_NAME":"GOES 8","OBJECT_ID":"1994-022A","EPOCH":"2025-03-09T17:06:18.161280","MEAN_MOTION":0.98907299,"ECCENTRICITY":0.0004532,"INCLINATION":14.0314,"RA_OF_ASC_NODE":17.1306,"ARG_OF_PERICENTER":23.8627,"MEAN_ANOMALY":161.692,"EPHEMERIS_TYPE":0,"CLASSIFICATION_TYPE":"U","NORAD_CAT_ID":23051,"ELEMENT_SET_NO":999,"REV_AT_EPOCH":11953,"BSTAR":0,"MEAN_MOTION_DOT":-2.88e-6,"MEAN_MOTION_DDOT":0},{"OBJECT_NAME":"GOES 9","OBJECT_ID":"1995-025A","EPOCH":"2025-03-09T13:08:50.894592","MEAN_MOTION":0.98800341,"ECCENTRICITY":0.0003576,"INCLINATION":13.5474,"RA_OF_ASC_NODE":17.8512,"ARG_OF_PERICENTER":171.1883,"MEAN_ANOMALY":203.1018,"EPHEMERIS_TYPE":0,"CLASSIFICATION_TYPE":"U","NORAD_CAT_ID":23581,"ELEMENT_SET_NO":999,"REV_AT_EPOCH":10817,"BSTAR":0,"MEAN_MOTION_DOT":-8.2e-7,"MEAN_MOTION_DDOT":0},{"OBJECT_NAME":"GOES 10","OBJECT_ID":"1997-019A","EPOCH":"2025-03-09T17:07:25.719168","MEAN_MOTION":0.99127213,"ECCENTRICITY":0.0030376,"INCLINATION":12.5778,"RA_OF_ASC_NODE":24.3501,"ARG_OF_PERICENTER":228.3925,"MEAN_ANOMALY":314.2982,"EPHEMERIS_TYPE":0,"CLASSIFICATION_TYPE":"U","NORAD_CAT_ID":24786,"ELEMENT_SET_NO":999,"REV_AT_EPOCH":10146,"BSTAR":0,"MEAN_MOTION_DOT":-3.18e-6,"MEAN_MOTION_DDOT":0},{"OBJECT_NAME":"GOES 11","OBJECT_ID":"2000-022A","EPOCH":"2025-03-09T11:40:27.169248","MEAN_MOTION":0.99039206,"ECCENTRICITY":0.0004678,"INCLINATION":10.8146,"RA_OF_ASC_NODE":50.8296,"ARG_OF_PERICENTER":246.6114,"MEAN_ANOMALY":122.6623,"EPHEMERIS_TYPE":0,"CLASSIFICATION_TYPE":"U","NORAD_CAT_ID":26352,"ELEMENT_SET_NO":999,"REV_AT_EPOCH":4787,"BSTAR":0,"MEAN_MOTION_DOT":2.4e-7,"MEAN_MOTION_DDOT":0},{"OBJECT_NAME":"GOES 12","OBJECT_ID":"2001-031A","EPOCH":"2025-03-09T18:00:58.485888","MEAN_MOTION":0.9913972,"ECCENTRICITY":0.0007822,"INCLINATION":11.3355,"RA_OF_ASC_NODE":41.067,"ARG_OF_PERICENTER":294.55,"MEAN_ANOMALY":71.8947,"EPHEMERIS_TYPE":0,"CLASSIFICATION_TYPE":"U","NORAD_CAT_ID":26871,"ELEMENT_SET_NO":999,"REV_AT_EPOCH":8616,"BSTAR":0,"MEAN_MOTION_DOT":-2.69e-6,"MEAN_MOTION_DDOT":0},{"OBJECT_NAME":"EWS-G1 (GOES 13)","OBJECT_ID":"2006-018A","EPOCH":"2025-03-09T18:09:51.444288","MEAN_MOTION":0.98833077,"ECCENTRICITY":0.0066033,"INCLINATION":3.3216,"RA_OF_ASC_NODE":82.0854,"ARG_OF_PERICENTER":261.784,"MEAN_ANOMALY":95.989,"EPHEMERIS_TYPE":0,"CLASSIFICATION_TYPE":"U","NORAD_CAT_ID":29155,"ELEMENT_SET_NO":999,"REV_AT_EPOCH":3865,"BSTAR":0,"MEAN_MOTION_DOT":-1.94e-6,"MEAN_MOTION_DDOT":0},{"OBJECT_NAME":"GOES 14","OBJECT_ID":"2009-033A","EPOCH":"2025-03-09T12:30:18.904032","MEAN_MOTION":1.00268928,"ECCENTRICITY":0.0001156,"INCLINATION":0.4765,"RA_OF_ASC_NODE":89.5152,"ARG_OF_PERICENTER":178.0401,"MEAN_ANOMALY":339.4093,"EPHEMERIS_TYPE":0,"CLASSIFICATION_TYPE":"U","NORAD_CAT_ID":35491,"ELEMENT_SET_NO":999,"REV_AT_EPOCH":193,"BSTAR":0,"MEAN_MOTION_DOT":-8.6e-7,"MEAN_MOTION_DDOT":0},{"OBJECT_NAME":"EWS-G2 (GOES 15)","OBJECT_ID":"2010-008A","EPOCH":"2025-03-09T18:27:14.841792","MEAN_MOTION":1.0027073,"ECCENTRICITY":0.0003951,"INCLINATION":0.0775,"RA_OF_ASC_NODE":92.5522,"ARG_OF_PERICENTER":188.4716,"MEAN_ANOMALY":224.7562,"EPHEMERIS_TYPE":0,"CLASSIFICATION_TYPE":"U","NORAD_CAT_ID":36411,"ELEMENT_SET_NO":999,"REV_AT_EPOCH":5498,"BSTAR":0,"MEAN_MOTION_DOT":2.1e-7,"MEAN_MOTION_DDOT":0},{"OBJECT_NAME":"GOES 16","OBJECT_ID":"2016-071A","EPOCH":"2025-03-09T21:13:28.471584","MEAN_MOTION":1.00269043,"ECCENTRICITY":0.0001865,"INCLINATION":0.0918,"RA_OF_ASC_NODE":286.4026,"ARG_OF_PERICENTER":71.7707,"MEAN_ANOMALY":52.7234,"EPHEMERIS_TYPE":0,"CLASSIFICATION_TYPE":"U","NORAD_CAT_ID":41866,"ELEMENT_SET_NO":999,"REV_AT_EPOCH":3044,"BSTAR":0,"MEAN_MOTION_DOT":-2.65e-6,"MEAN_MOTION_DDOT":0},{"OBJECT_NAME":"GOES 17","OBJECT_ID":"2018-022A","EPOCH":"2025-03-09T21:05:35.564640","MEAN_MOTION":1.002719,"ECCENTRICITY":0.0001195,"INCLINATION":0.0503,"RA_OF_ASC_NODE":314.8677,"ARG_OF_PERICENTER":119.4369,"MEAN_ANOMALY":305.4606,"EPHEMERIS_TYPE":0,"CLASSIFICATION_TYPE":"U","NORAD_CAT_ID":43226,"ELEMENT_SET_NO":999,"REV_AT_EPOCH":2576,"BSTAR":0,"MEAN_MOTION_DOT":-1.1e-6,"MEAN_MOTION_DDOT":0}]
